{"type": "FeatureCollection", "features": [ {"type": "Feature", "properties": {"norad_id": 33153, "name": "INTELSAT 25 (IS-25)", "group": "intelsat", "lat": -2.251067516402546, "lon": -13.994281666815445, "alt_km": 35781.37636386291, "timestamp": "2025-12-23T18:59:31.657344+00:00", "meta": {"OBJECT_NAME": "INTELSAT 25 (IS-25)", "OBJECT_ID": "2008-034A", "EPOCH": "2025-12-23T06:08:04.061184", "MEAN_MOTION": 1.0027274, "ECCENTRICITY": 0.00048491, "INCLINATION": 2.2531, "RA_OF_ASC_NODE": 82.5374, "ARG_OF_PERICENTER": 186.828, "MEAN_ANOMALY": 243.1998, "EPHEMERIS_TYPE": 0, "CLASSIFICATION_TYPE": "U", "NORAD_CAT_ID": 33153, "ELEMENT_SET_NO": 999, "REV_AT_EPOCH": 6393, "BSTAR": 0, "MEAN_MOTION_DOT": -2.04e-06, "MEAN_MOTION_DDOT": 0}, "tle": {"line1": "1 33153U 08034A   25357.25560256 -.00000204  00000+0  00000+0 0  9998", "line2": "2 33153   2.2531  82.5374 0004849 186.8280 243.1998  1.00272740 63937"}}, "geometry": {"type": "Point", "coordinates": [-13.994281666815445, -2.251067516402546]}}, {"type": "Feature", "properties": {"norad_id": 33376, "name": "GALAXY 19 (G-19)", "group": "intelsat", "lat": -0.013278850271882144, "lon": -79.55367231290109, "alt_km": 35775.22353634156, "timestamp": "2025-12-23T18:59:31.657355+00:00", "meta": {"OBJECT_NAME": "GALAXY 19 (G-19)", "OBJECT_ID": "2008-045A", "EPOCH": "2025-12-23T04:06:38.241216", "MEAN_MOTION": 1.00270979, "ECCENTRICITY": 0.0002622, "INCLINATION": 0.0461, "RA_OF_ASC_NODE": 265.7116, "ARG_OF_PERICENTER": 14.076, "MEAN_ANOMALY": 136.833, "EPHEMERIS_TYPE": 0, "CLASSIFICATION_TYPE": "U", "NORAD_CAT_ID": 33376, "ELEMENT_SET_NO": 999, "REV_AT_EPOCH": 6313, "BSTAR": 0, "MEAN_MOTION_DOT": -1.18e-06, "MEAN_MOTION_DDOT": 0}, "tle": {"line1": "1 33376U 08045A   25357.17127594 -.00000118  00000+0  00000+0 0  9996", "line2": "2 33376   0.0461 265.7116 0002622  14.0760 136.8330  1.00270979 63135"}}, "geometry": {"type": "Point", "coordinates": [-79.55367231290109, -0.013278850271882144]}}, {"type": "Feature", "properties": {"norad_id": 35493, "name": "FM-5", "group": "intelsat", "lat": -0.015172683712996222, "lon": -68.68096895114076, "alt_km": 35789.47402346961, "timestamp": "2025-12-23T18:59:31.657366+00:00", "meta": {"OBJECT_NAME": "FM-5", "OBJECT_ID": "2009-034A", "EPOCH": "2025-12-23T04:09:45.442368", "MEAN_MOTION": 1.00270341, "ECCENTRICITY": 9.906e-05, "INCLINATION": 0.0237, "RA_OF_ASC_NODE": 288.9102, "ARG_OF_PERICENTER": 227.6165, "MEAN_ANOMALY": 271.7426, "EPHEMERIS_TYPE": 0, "CLASSIFICATION_TYPE": "U", "NORAD_CAT_ID": 35493, "ELEMENT_SET_NO": 999, "REV_AT_EPOCH": 4487, "BSTAR": 0, "MEAN_MOTION_DOT": -1.79e-06, "MEAN_MOTION_DDOT": 0}, "tle": {"line1": "1 35493U 09034A   25357.17344262 -.00000179  00000+0  00000+0 0  9997", "line2": "2 35493   0.0237 288.9102 0000990 227.6165 271.7426  1.00270341 44875"}}, "geometry": {"type": "Point", "coordinates": [-68.68096895114076, -0.015172683712996222]}}, {"type": "Feature", "properties": {"norad_id": 36097, "name": "INTELSAT 14 (IS-14)", "group": "intelsat", "lat": -0.015309613509934783, "lon": -27.53402447464064, "alt_km": 35779.49653239165, "timestamp": "2025-12-23T18:59:31.657377+00:00", "meta": {"OBJECT_NAME": "INTELSAT 14 (IS-14)", "OBJECT_ID": "2009-064A", "EPOCH": "2025-12-23T06:04:11.931168", "MEAN_MOTION": 1.00269655, "ECCENTRICITY": 0.00025633, "INCLINATION": 0.0106, "RA_OF_ASC_NODE": 353.0362, "ARG_OF_PERICENTER": 291.3551, "MEAN_ANOMALY": 213.7007, "EPHEMERIS_TYPE": 0, "CLASSIFICATION_TYPE": "U", "NORAD_CAT_ID": 36097, "ELEMENT_SET_NO": 999, "REV_AT_EPOCH": 5884, "BSTAR": 0, "MEAN_MOTION_DOT": -2.52e-06, "MEAN_MOTION_DDOT": 0}, "tle": {"line1": "1 36097U 09064A   25357.25291587 -.00000252  00000+0  00000+0 0  9993", "line2": "2 36097   0.0106 353.0362 0002563 291.3551 213.7007  1.00269655 58847"}}, "geometry": {"type": "Point", "coordinates": [-27.53402447464064, -0.015309613509934783]}}, {"type": "Feature", "properties": {"norad_id": 36106, "name": "INTELSAT 15 (IS-15)", "group": "intelsat", "lat": 0.04165272356292088, "lon": 102.6125256355165, "alt_km": 35795.71511363922, "timestamp": "2025-12-23T18:59:31.657387+00:00", "meta": {"OBJECT_NAME": "INTELSAT 15 (IS-15)", "OBJECT_ID": "2009-067A", "EPOCH": "2025-12-22T22:07:47.916768", "MEAN_MOTION": 1.00271269, "ECCENTRICITY": 0.000223, "INCLINATION": 0.0177, "RA_OF_ASC_NODE": 8.1154, "ARG_OF_PERICENTER": 275.52, "MEAN_ANOMALY": 225.1959, "EPHEMERIS_TYPE": 0, "CLASSIFICATION_TYPE": "U", "NORAD_CAT_ID": 36106, "ELEMENT_SET_NO": 999, "REV_AT_EPOCH": 3946, "BSTAR": 0, "MEAN_MOTION_DOT": -1.64e-06, "MEAN_MOTION_DDOT": 0}, "tle": {"line1": "1 36106U 09067A   25356.92208237 -.00000164  00000+0  00000+0 0  9992", "line2": "2 36106   0.0177   8.1154 0002230 275.5200 225.1959  1.00271269 39463"}}, "geometry": {"type": "Point", "coordinates": [102.6125256355165, 0.04165272356292088]}}, {"type": "Feature", "properties": {"norad_id": 36131, "name": "DIRECTV 12", "group": "intelsat", "lat": -0.011752571111509097, "lon": -85.26790182615171, "alt_km": 35785.60844320766, "timestamp": "2025-12-23T18:59:31.657399+00:00", "meta": {"OBJECT_NAME": "DIRECTV 12", "OBJECT_ID": "2009-075A", "EPOCH": "2025-12-23T03:20:33.607968", "MEAN_MOTION": 1.00270962, "ECCENTRICITY": 4.713e-05, "INCLINATION": 0.0146, "RA_OF_ASC_NODE": 102.798, "ARG_OF_PERICENTER": 240.9424, "MEAN_ANOMALY": 55.6205, "EPHEMERIS_TYPE": 0, "CLASSIFICATION_TYPE": "U", "NORAD_CAT_ID": 36131, "ELEMENT_SET_NO": 999, "REV_AT_EPOCH": 4478, "BSTAR": 0, "MEAN_MOTION_DOT": -8.2e-07, "MEAN_MOTION_DDOT": 0}, "tle": {"line1": "1 36131U 09075A   25357.13927787 -.00000082  00000+0  00000+0 0  9990", "line2": "2 36131   0.0146 102.7980 0000471 240.9424  55.6205  1.00270962 44784"}}, "geometry": {"type": "Point", "coordinates": [-85.26790182615171, -0.011752571111509097]}}, {"type": "Feature", "properties": {"norad_id": 36397, "name": "INTELSAT 16 (IS-16)", "group": "intelsat", "lat": -0.019047194522859127, "lon": -58.73728017317313, "alt_km": 35779.64321591772, "timestamp": "2025-12-23T18:59:31.657409+00:00", "meta": {"OBJECT_NAME": "INTELSAT 16 (IS-16)", "OBJECT_ID": "2010-006A", "EPOCH": "2025-12-23T03:25:52.919904", "MEAN_MOTION": 1.00270396, "ECCENTRICITY": 0.00018499, "INCLINATION": 0.0127, "RA_OF_ASC_NODE": 322.8693, "ARG_OF_PERICENTER": 309.952, "MEAN_ANOMALY": 154.3908, "EPHEMERIS_TYPE": 0, "CLASSIFICATION_TYPE": "U", "NORAD_CAT_ID": 36397, "ELEMENT_SET_NO": 999, "REV_AT_EPOCH": 5788, "BSTAR": 0, "MEAN_MOTION_DOT": -2.23e-06, "MEAN_MOTION_DDOT": 0}, "tle": {"line1": "1 36397U 10006A   25357.14297361 -.00000223  00000+0  00000+0 0  9996", "line2": "2 36397   0.0127 322.8693 0001849 309.9520 154.3908  1.00270396 57889"}}, "geometry": {"type": "Point", "coordinates": [-58.73728017317313, -0.019047194522859127]}}, {"type": "Feature", "properties": {"norad_id": 37185, "name": "XM-5", "group": "intelsat", "lat": -0.03057199907279339, "lon": -97.71448543573659, "alt_km": 35790.165829689395, "timestamp": "2025-12-23T18:59:31.657420+00:00", "meta": {"OBJECT_NAME": "XM-5", "OBJECT_ID": "2010-053A", "EPOCH": "2025-12-23T00:36:02.072736", "MEAN_MOTION": 1.00270944, "ECCENTRICITY": 0.00022817, "INCLINATION": 0.0686, "RA_OF_ASC_NODE": 269.8014, "ARG_OF_PERICENTER": 238.9496, "MEAN_ANOMALY": 196.8907, "EPHEMERIS_TYPE": 0, "CLASSIFICATION_TYPE": "U", "NORAD_CAT_ID": 37185, "ELEMENT_SET_NO": 999, "REV_AT_EPOCH": 5571, "BSTAR": 0, "MEAN_MOTION_DOT": -2e-08, "MEAN_MOTION_DDOT": 0}, "tle": {"line1": "1 37185U 10053A   25357.02502399 -.00000002  00000+0  00000+0 0  9996", "line2": "2 37185   0.0686 269.8014 0002281 238.9496 196.8907  1.00270944 55715"}}, "geometry": {"type": "Point", "coordinates": [-97.71448543573659, -0.03057199907279339]}}, {"type": "Feature", "properties": {"norad_id": 37238, "name": "INTELSAT 17 (IS-17)", "group": "intelsat", "lat": 0.01453328993371104, "lon": 83.44798203993783, "alt_km": 35796.69355361805, "timestamp": "2025-12-23T18:59:31.657431+00:00", "meta": {"OBJECT_NAME": "INTELSAT 17 (IS-17)", "OBJECT_ID": "2010-065B", "EPOCH": "2025-12-23T03:10:28.621344", "MEAN_MOTION": 1.00271528, "ECCENTRICITY": 0.00026191, "INCLINATION": 0.0074, "RA_OF_ASC_NODE": 301.2725, "ARG_OF_PERICENTER": 339.8903, "MEAN_ANOMALY": 284.3707, "EPHEMERIS_TYPE": 0, "CLASSIFICATION_TYPE": "U", "NORAD_CAT_ID": 37238, "ELEMENT_SET_NO": 999, "REV_AT_EPOCH": 5148, "BSTAR": 0, "MEAN_MOTION_DOT": 2e-07, "MEAN_MOTION_DDOT": 0}, "tle": {"line1": "1 37238U 10065B   25357.13227571  .00000020  00000+0  00000+0 0  9995", "line2": "2 37238   0.0074 301.2725 0002619 339.8903 284.3707  1.00271528 51484"}}, "geometry": {"type": "Point", "coordinates": [83.44798203993783, 0.01453328993371104]}}, {"type": "Feature", "properties": {"norad_id": 37392, "name": "INTELSAT 28 (IS-28)", "group": "intelsat", "lat": -1.3446718588309872, "lon": -14.231190613937995, "alt_km": 35781.69807510831, "timestamp": "2025-12-23T18:59:31.657441+00:00", "meta": {"OBJECT_NAME": "INTELSAT 28 (IS-28)", "OBJECT_ID": "2011-016A", "EPOCH": "2025-12-23T02:42:31.296672", "MEAN_MOTION": 1.00268957, "ECCENTRICITY": 0.00037619, "INCLINATION": 1.3497, "RA_OF_ASC_NODE": 84.9442, "ARG_OF_PERICENTER": 190.6388, "MEAN_ANOMALY": 185.239, "EPHEMERIS_TYPE": 0, "CLASSIFICATION_TYPE": "U", "NORAD_CAT_ID": 37392, "ELEMENT_SET_NO": 999, "REV_AT_EPOCH": 5152, "BSTAR": 0, "MEAN_MOTION_DOT": -2.05e-06, "MEAN_MOTION_DDOT": 0}, "tle": {"line1": "1 37392U 11016A   25357.11286223 -.00000205  00000+0  00000+0 0  9996", "line2": "2 37392   1.3497  84.9442 0003761 190.6388 185.2390  1.00268957 51522"}}, "geometry": {"type": "Point", "coordinates": [-14.231190613937995, -1.3446718588309872]}}]}